#aV2008  1 19  0  0   .00000000      96 DD+AD WGS84 FIT  NGA
## 1462 518400.00000000   900.00000000 54484  .0000000000000
+   31     1  2  3  4  5  6  8  9 10 11 12 13 14 15 16 17 18
+         19 20 21 22 23 24 25 26 27 28 29 30 31 32  0  0  0
+          0  0  0  0  0  0  0  0  0  0  0  0  0  0  0  0  0
+          0  0  0  0  0  0  0  0  0  0  0  0  0  0  0  0  0
+          0  0  0  0  0  0  0  0  0  0  0  0  0  0  0  0  0
++         0  0  0  0  0  0  0  0  0  0  0  0  0  0  0  0  0
++         0  0  0  0  0  0  0  0  0  0  0  0  0  0  0  0  0
++         0  0  0  0  0  0  0  0  0  0  0  0  0  0  0  0  0
++         0  0  0  0  0  0  0  0  0  0  0  0  0  0  0  0  0
++         0  0  0  0  0  0  0  0  0  0  0  0  0  0  0  0  0
%c cc cc ccc ccc cccc cccc cccc cccc ccccc ccccc ccccc ccccc
%c cc cc ccc ccc cccc cccc cccc cccc ccccc ccccc ccccc ccccc
%f  0.0000000  0.000000000  0.00000000000  0.000000000000000
%f  0.0000000  0.000000000  0.00000000000  0.000000000000000
%i    0    0    0    0      0      0      0      0         0
%i    0    0    0    0      0      0      0      0         0
/*      NGA, ST. LOUIS,MO.                                  
/*   EPHEMERIS COMPUTED FROM  3 DAYS OF DATA                
/* CCCCCCCCCCCCCCCCCCCCCCCCCCCCCCCCCCCCCCCCCCCCCCCCCCCCCCCCC
/* CCCCCCCCCCCCCCCCCCCCCCCCCCCCCCCCCCCCCCCCCCCCCCCCCCCCCCCCC
*  2008  1 19  0 30   .00000000                                                 
P  1 -18510.200417 -15977.723269 -10236.225806    179.920396                    
V  1  -5902.824414 -11992.818600  28701.887197       .024949                    
P  2  16189.506309   1108.913935 -21164.666172    167.365129                    
V  2  -9696.588115  24742.664468  -6496.996888       .030065                    
P  3 -20760.657131  -5273.366652  15669.314817    174.819367                    
V  3 -11844.658606 -16693.660806 -20634.773649       .055179                    
P  4  10475.662497  13112.478509 -20600.373435    -53.808464                    
V  4 -11751.568605  23329.470408   9278.651357      -.059149                    
P  5  13033.931696 -15537.206835 -17340.316369    652.527835                    
V  5  21597.131442  -2325.139151  18739.939671       .167606                    
P  6  -4201.013319 -21980.399721 -14127.537606    146.800149                    
V  6  13650.578582  12509.423133 -23288.705670      -.158839                    
P  8   3115.284528  19639.320981  17276.795257   -137.494015                    
V  8 -11383.895615  19187.703254 -20107.439504      -.014681                    
P  9  14234.856385 -20402.338424   8430.361803    106.365866                    
V  9  -1799.771507  11762.170092  29546.873492       .018233                    
P 10  26677.762049  -1260.137940  -1538.679239   -214.425949                    
V 10  -1569.117834   2506.679288 -31570.799965      -.149685                    
P 11 -11564.085817  22413.243299   7656.414238     27.011490                    
V 11  -2479.272008 -10969.297241  28164.457580       .000830                    
P 12  18672.799801 -12117.049011 -14341.847729   -354.529505                    
V 12  18517.018888     80.764432  23959.937942      -.009267                    
P 13   3393.193854  22002.162075 -14612.802876    235.035005                    
V 13 -11264.575977 -14476.436567 -24558.320643       .022338                    
P 14 -15249.973412 -21807.505622    -24.995403   -304.523633                    
V 14   1421.511426  -1183.741374  32305.058971       .029312                    
P 15  15187.837914  -4754.455979  21291.249799    -71.953245                    
V 15  15786.174515  21889.603028  -6390.196787      -.013559                    
P 16 -25904.623294  -1681.064496  -5973.178640    131.989618                    
V 16   7371.955130  -3162.337618 -30528.404836       .006940                    
P 17  15200.692713  21871.825965    699.867847     44.159034                    
V 17  -2723.534617    907.118793  31605.456835      -.006322                    
P 18    263.787881 -15561.787108  21677.299124   -211.172885                    
V 18  27131.383818  -1689.319474  -1900.199838       .028300                    
P 19 -15283.094324   4118.020283  21430.797489     17.269490                    
V 19 -14165.562118 -23000.759917  -5544.170975       .015960                    
P 20 -16100.226475  13716.576968 -16144.700530    122.303197                    
V 20 -20454.081520    492.104759  21004.222090      -.007349                    
P 21   3223.830859 -24140.634910  10001.126556     73.381849                    
V 21   8653.067810  -9989.386637 -27919.955593      -.006691                    
P 22 -14688.358238 -12356.039164  18531.971709    207.232823                    
V 22  23076.081132  -3174.588691  16273.436155       .006288                    
P 23  -8043.758696  13674.325624 -21324.966436    327.369515                    
V 23 -16506.310357 -21307.434992  -7683.924643       .029884                    
P 24  12829.286912 -23381.189872  -1457.007111     63.504181                    
V 24   1589.483450   3079.610324 -31337.311069       .030649                    
P 25  -5973.710669  25793.975574   3385.618631    501.869211                    
V 25  -3621.201391   2841.012204 -31311.126506       .036257                    
P 26  16331.533332    171.983821  20613.986749    159.321173                    
V 26  14745.004553  22642.197754 -11081.366184       .106661                    
P 27  -1837.659103  24758.321656   9845.943764    161.826368                    
V 27  -6170.338020  10090.351667 -28649.788001       .025710                    
P 28  12131.851352  13029.965642  20180.054027    -13.876929                    
V 28 -24551.650624   2982.841935  12729.033253      -.005982                    
P 29    -67.184027 -20467.440932 -16827.830828    -76.528161                    
V 29  13986.364613  16535.825078 -20005.743360       .085739                    
P 30   6621.866861 -15907.954296 -20519.983177     60.408582                    
V 30  25257.546529  -2765.816592  10564.203912       .013767                    
P 31 -11306.170284 -10837.477196 -21229.861369     -5.846586                    
V 31  11449.075481 -24953.084587   6661.782177      -.014416                    
P 32 -21424.859795  -8579.547356  13451.953556    205.537342                    
V 32  16315.086981  -2427.002704  25459.926760       .103577                    
EOF
